{
  "norad_id": 61676,
  "name": "STARLINK-32309",
  "history": [
    {
      "epoch": "2026-03-28T21:46:04.702368",
      "apogee_km": 476.11325690034664,
      "perigee_km": 474.31329298413584,
      "latitude_deg": 41.53296629107285,
      "longitude_deg": 74.67189152003266,
      "semi_major_axis_km": 6853.350274942241,
      "eccentricity": 0.00013132,
      "inclination_deg": 53.1625,
      "raan_deg": 1.4041,
      "arg_perigee_deg": 87.4877,
      "mean_anomaly_deg": 272.6275,
      "mean_motion_rev_day": 15.30200601
    },
    {
      "epoch": "2026-03-29T00:54:12.204864",
      "apogee_km": 476.0706676816053,
      "perigee_km": 474.44915397250315,
      "latitude_deg": -49.42495750130239,
      "longitude_deg": 87.21356096002273,
      "semi_major_axis_km": 6853.396910827054,
      "eccentricity": 0.0001183,
      "inclination_deg": 53.1618,
      "raan_deg": 0.7981,
      "arg_perigee_deg": 88.8519,
      "mean_anomaly_deg": 271.2618,
      "mean_motion_rev_day": 15.30184982
    }
  ]
}